[{"OBJECT_NAME":"FLOCK 4BE-31","OBJECT_ID":"2024-149W","EPOCH":"2026-03-09T19:19:52.916448","MEAN_MOTION":15.3997149,"ECCENTRICITY":0.00018944,"INCLINATION":97.3827,"RA_OF_ASC_NODE":152.9044,"ARG_OF_PERICENTER":239.7278,"MEAN_ANOMALY":120.3781,"EPHEMERIS_TYPE":0,"CLASSIFICATION_TYPE":"U","NORAD_CAT_ID":60488,"ELEMENT_SET_NO":999,"REV_AT_EPOCH":8706,"BSTAR":0.00062190011,"MEAN_MOTION_DOT":0.00024755,"MEAN_MOTION_DDOT":0},{"OBJECT_NAME":"CZ-2C R\/B","OBJECT_ID":"2025-040C","EPOCH":"2026-03-09T20:48:45.699840","MEAN_MOTION":15.35891971,"ECCENTRICITY":0.00146139,"INCLINATION":97.1638,"RA_OF_ASC_NODE":181.5862,"ARG_OF_PERICENTER":64.9841,"MEAN_ANOMALY":295.2919,"EPHEMERIS_TYPE":0,"CLASSIFICATION_TYPE":"U","NORAD_CAT_ID":63127,"ELEMENT_SET_NO":999,"REV_AT_EPOCH":5741,"BSTAR":0.00046093655,"MEAN_MOTION_DOT":0.00016093,"MEAN_MOTION_DDOT":0}]
